NORAD_CAT_ID,OBJECT_NAME,OBJECT_TYPE,EPOCH,MEAN_MOTION,ECCENTRICITY,INCLINATION,RA_OF_ASC_NODE,ARG_OF_PERICENTER,MEAN_ANOMALY,BSTAR,MEAN_MOTION_DOT,MEAN_MOTION_DDOT,TLE_LINE0,TLE_LINE1,TLE_LINE2,SEMIMAJOR_AXIS,PERIOD,APOGEE,PERIGEE,DECAYED
53905.0,STARLINK-5003,PAYLOAD,2023-03-22 16:15:02,15.08848559,0.0001359,53.2163,136.1665,109.7918,250.322,0.00016184,2.289e-05,0.0,0 STARLINK-5003,1 53905U 22119V   23081.67711728  .00002289  00000-0  16184-3 0  9994,2 53905  53.2163 136.1665 0001359 109.7918 250.3220 15.08848559 27900,6917.854,95.437,540.659,538.779,0.0
53905.0,STARLINK-5003,PAYLOAD,2023-03-23 03:22:45,15.08833979,0.0001035,53.2163,134.0875,82.6613,277.4497,4.9909e-05,5.07e-06,0.0,0 STARLINK-5003,1 53905U 22119V   23082.14080732  .00000507  00000-0  49909-4 0  9994,2 53905  53.2163 134.0875 0001035  82.6613 277.4497 15.08833979 27975,6917.899,95.438,540.48,539.048,0.0
53905.0,STARLINK-5003,PAYLOAD,2023-03-23 09:44:17,15.0884514,0.0001452,53.2149,132.8971,110.4579,249.6569,0.00013168,1.809e-05,0.0,0 STARLINK-5003,1 53905U 22119V   23082.40576100  .00001809  00000-0  13168-3 0  9995,2 53905  53.2149 132.8971 0001452 110.4579 249.6569 15.08845140 28016,6917.865,95.437,540.734,538.725,0.0
53905.0,STARLINK-5003,PAYLOAD,2023-03-23 20:51:59,15.08851013,0.0001497,53.2155,130.8165,90.4225,269.6938,0.00027322,4.064e-05,0.0,0 STARLINK-5003,1 53905U 22119V   23082.86943906  .00004064  00000-0  27322-3 0  9990,2 53905  53.2155 130.8165 0001497  90.4225 269.6938 15.08851013 28502,6917.847,95.437,540.747,538.676,0.0
53905.0,STARLINK-5003,PAYLOAD,2023-03-24 03:13:31,15.08866333,0.0001348,53.2142,129.6269,96.2616,263.853,0.00058616,9.06e-05,0.0,0 STARLINK-5003,1 53905U 22119V   23083.13439400  .00009060  00000-0  58616-3 0  9991,2 53905  53.2142 129.6269 0001348  96.2616 263.8530 15.08866333 28125,6917.8,95.436,540.597,538.732,0.0
53905.0,STARLINK-5003,PAYLOAD,2023-03-24 09:35:03,15.0890265,0.0001355,53.2151,128.4371,105.2733,254.8409,0.0014987,0.00023685,0.0,0 STARLINK-5003,1 53905U 22119V   23083.39934357  .00023685  00000-0  14987-2 0  9991,2 53905  53.2151 128.4371 0001355 105.2733 254.8409 15.08902650 28167,6917.689,95.434,540.491,538.617,0.0
53905.0,STARLINK-5003,PAYLOAD,2023-03-25 03:04:19,15.08829809,0.0001601,53.2139,125.1657,108.6161,251.5005,-0.00031139,-5.239e-05,0.0,0 STARLINK-5003,1 53905U 22119V   23084.12799891 -.00005239  00000-0 -31139-3 0  9991,2 53905  53.2139 125.1657 0001601 108.6161 251.5005 15.08829809 28272,6917.912,95.438,540.884,538.669,0.0
53905.0,STARLINK-5003,PAYLOAD,2023-03-25 11:01:15,15.08805761,8.74e-05,53.2154,123.6781,87.7584,272.3508,-0.00060122,-9.834e-05,0.0,0 STARLINK-5003,1 53905U 22119V   23084.45921051 -.00009834  00000-0 -60122-3 0  9991,2 53905  53.2154 123.6781 0000874  87.7584 272.3508 15.08805761 28323,6917.985,95.44,540.455,539.245,0.0
53905.0,STARLINK-5003,PAYLOAD,2023-03-25 18:58:12,15.08811096,6.89e-05,53.2152,122.1928,79.966,280.1409,-1.5684e-05,-5.37e-06,0.0,0 STARLINK-5003,1 53905U 22119V   23084.79041702 -.00000537  00000-0 -15684-4 0  9999,2 53905  53.2152 122.1928 0000689  79.9660 280.1409 15.08811096 28796,6917.969,95.439,540.31,539.357,0.0
53905.0,STARLINK-5003,PAYLOAD,2023-03-26 09:16:41,15.08837487,8.78e-05,53.2159,119.5165,60.3045,299.8034,0.0015177,0.00023947,0.0,0 STARLINK-5003,1 53905U 22119V   23085.38658782  .00023947  00000-0  15177-2 0  9990,2 53905  53.2159 119.5165 0000878  60.3045 299.8034 15.08837487 28464,6917.888,95.438,540.36,539.146,0.0
53905.0,STARLINK-5003,PAYLOAD,2023-03-26 18:48:59,15.08853605,8.81e-05,53.2161,117.7318,63.4124,296.6959,0.0014345,0.00022624,0.0,0 STARLINK-5003,1 53905U 22119V   23085.78402643  .00022624  00000-0  14345-2 0  9994,2 53905  53.2161 117.7318 0000881  63.4124 296.6959 15.08853605 28947,6917.839,95.437,540.313,539.094,0.0
53905.0,STARLINK-5003,PAYLOAD,2023-03-27 09:07:27,15.08878402,8.46e-05,53.2158,115.0559,66.129,293.9791,0.001371,0.00021622,0.0,0 STARLINK-5003,1 53905U 22119V   23086.38017513  .00021622  00000-0  13710-2 0  9991,2 53905  53.2158 115.0559 0000846  66.1290 293.9791 15.08878402 29033,6917.763,95.435,540.213,539.043,0.0
53905.0,STARLINK-5003,PAYLOAD,2023-03-27 18:39:45,15.08869509,9.8e-05,53.2157,113.2715,74.5745,285.5356,0.0009037,0.00014135,0.0,0 STARLINK-5003,1 53905U 22119V   23086.77761155  .00014135  00000-0  90370-3 0  9991,2 53905  53.2157 113.2715 0000980  74.5745 285.5356 15.08869509 28674,6917.79,95.436,540.333,538.977,0.0
53905.0,STARLINK-5003,PAYLOAD,2023-03-28 10:33:36,15.08854674,0.0001073,53.2156,110.2983,81.4644,278.647,0.0013646,0.00021505,0.0,0 STARLINK-5003,1 53905U 22119V   23087.44000973  .00021505  00000-0  13646-2 0  9999,2 53905  53.2156 110.2983 0001073  81.4644 278.6470 15.08854674 28774,6917.836,95.437,540.443,538.958,0.0
53905.0,STARLINK-5003,PAYLOAD,2023-03-28 13:44:23,15.08858128,0.0001232,53.2156,109.7035,75.8641,284.2488,0.0011134,0.00017485,0.0,0 STARLINK-5003,1 53905U 22119V   23087.57248871  .00017485  00000-0  11134-2 0  9996,2 53905  53.2156 109.7035 0001232  75.8641 284.2488 15.08858128 29216,6917.825,95.436,540.542,538.838,0.0
53905.0,STARLINK-5003,PAYLOAD,2023-03-29 00:52:05,15.08859394,0.0002362,53.2139,107.6224,80.8721,279.2538,0.00097571,0.00015283,0.0,0 STARLINK-5003,1 53905U 22119V   23088.03616949  .00015283  00000-0  97571-3 0  9997,2 53905  53.2139 107.6224 0002362  80.8721 279.2538 15.08859394 28860,6917.821,95.436,541.32,538.052,0.0
53905.0,STARLINK-5003,PAYLOAD,2023-03-29 08:49:00,15.08856267,0.0001095,53.2158,106.1353,83.6943,276.4173,0.0006797,0.00010551,0.0,0 STARLINK-5003,1 53905U 22119V   23088.36736613  .00010551  00000-0  67970-3 0  9997,2 53905  53.2158 106.1353 0001095  83.6943 276.4173 15.08856267 28913,6917.831,95.437,540.453,538.938,0.0
53905.0,STARLINK-5003,PAYLOAD,2023-03-29 18:21:19,15.08838013,2.16e-05,53.2167,104.3523,42.5037,317.5972,-0.00012003,-2.197e-05,0.0,0 STARLINK-5003,1 53905U 22119V   23088.76480485 -.00002197  00000-0 -12003-3 0  9990,2 53905  53.2167 104.3523 0000216  42.5037 317.5972 15.08838013 28973,6917.886,95.438,539.901,539.602,0.0
53905.0,STARLINK-5003,PAYLOAD,2023-03-30 07:04:24,15.08841743,0.0001123,53.2159,101.972,74.4633,285.6483,0.0006132,9.485e-05,0.0,0 STARLINK-5003,1 53905U 22119V   23089.29473095  .00009485  00000-0  61320-3 0  9999,2 53905  53.2159 101.9720 0001123  74.4633 285.6483 15.08841743 29056,6917.875,95.437,540.517,538.963,0.0
53905.0,STARLINK-5003,PAYLOAD,2023-03-31 11:41:20,15.0886332,0.0001109,53.2159,96.6186,75.2285,284.883,0.0010347,0.00016228,0.0,0 STARLINK-5003,1 53905U 22119V   23090.48704825  .00016228  00000-0  10347-2 0  9995,2 53905  53.2159  96.6186 0001109  75.2285 284.8830 15.08863320 29230,6917.809,95.436,540.441,538.907,0.0
53905.0,STARLINK-5003,PAYLOAD,2023-04-01 03:35:12,15.08846788,0.000121,53.2153,93.6457,87.2991,272.814,0.00031041,4.657e-05,0.0,0 STARLINK-5003,1 53905U 22119V   23091.14945062  .00004657  00000-0  31041-3 0  9997,2 53905  53.2153  93.6457 0001210  87.2991 272.8140 15.08846788 29333,6917.86,95.437,540.562,538.888,0.0
53905.0,STARLINK-5003,PAYLOAD,2023-04-01 09:56:45,15.08851037,0.0001252,53.216,92.4564,86.8261,273.2874,0.00060625,9.377e-05,0.0,0 STARLINK-5003,1 53905U 22119V   23091.41440989  .00009377  00000-0  60625-3 0  9999,2 53905  53.2160  92.4564 0001252  86.8261 273.2874 15.08851037 29790,6917.847,95.437,540.578,538.846,0.0
53905.0,STARLINK-5003,PAYLOAD,2023-04-02 05:01:23,15.08830934,0.0001489,53.2168,88.8876,92.2166,267.8997,0.00039294,5.97e-05,0.0,0 STARLINK-5003,1 53905U 22119V   23092.20929754  .00005970  00000-0  39294-3 0  9992,2 53905  53.2168  88.8876 0001489  92.2166 267.8997 15.08830934 29495,6917.908,95.438,540.803,538.743,0.0
53905.0,STARLINK-5003,PAYLOAD,2023-04-02 11:22:55,15.08840163,0.0001268,53.2158,87.6987,86.0605,274.0532,0.00045717,6.995e-05,0.0,0 STARLINK-5003,1 53905U 22119V   23092.47425653  .00006995  00000-0  45717-3 0  9995,2 53905  53.2158  87.6987 0001268  86.0605 274.0532 15.08840163 29959,6917.88,95.438,540.622,538.868,0.0
53905.0,STARLINK-5003,PAYLOAD,2023-04-02 22:30:37,15.08841311,0.0001215,53.2153,85.6166,84.2105,275.9025,0.00030913,4.636e-05,0.0,0 STARLINK-5003,1 53905U 22119V   23092.93793756  .00004636  00000-0  30913-3 0  9990,2 53905  53.2153  85.6166 0001215  84.2105 275.9025 15.08841311 30021,6917.876,95.437,540.582,538.901,0.0
53905.0,STARLINK-5003,PAYLOAD,2023-04-03 11:13:42,15.08854404,0.0001254,53.2163,83.2375,90.872,269.2416,0.00072701,0.00011306,0.0,0 STARLINK-5003,1 53905U 22119V   23093.46785259  .00011306  00000-0  72701-3 0  9991,2 53905  53.2163  83.2375 0001254  90.8720 269.2416 15.08854404 29684,6917.836,95.437,540.569,538.834,0.0
53905.0,STARLINK-5003,PAYLOAD,2023-04-03 15:59:52,15.08832802,0.0002027,53.2162,82.3452,88.6076,271.5148,2.7356e-05,1.47e-06,0.0,0 STARLINK-5003,1 53905U 22119V   23093.66658038  .00000147  00000-0  27356-4 0  9995,2 53905  53.2162  82.3452 0002027  88.6076 271.5148 15.08832802 29717,6917.902,95.438,541.17,538.365,0.0
53905.0,STARLINK-5003,PAYLOAD,2023-04-04 03:07:33,15.08847551,0.0001017,53.2163,80.2641,103.1072,257.0034,0.0002606,3.863e-05,0.0,0 STARLINK-5003,1 53905U 22119V   23094.13025328  .00003863  00000-0  26060-3 0  9996,2 53905  53.2163  80.2641 0001017 103.1072 257.0034 15.08847551 29789,6917.857,95.437,540.426,539.019,0.0
53905.0,STARLINK-5003,PAYLOAD,2023-04-04 09:29:06,15.08858793,0.0001222,53.216,79.0745,103.9268,256.186,0.00078054,0.00012163,0.0,0 STARLINK-5003,1 53905U 22119V   23094.39521056  .00012163  00000-0  78054-3 0  9996,2 53905  53.2160  79.0745 0001222 103.9268 256.1860 15.08858793 30240,6917.823,95.436,540.533,538.843,0.0
53905.0,STARLINK-5003,PAYLOAD,2023-04-05 04:33:44,15.08843819,0.0001267,53.2163,75.5059,113.456,246.6565,0.00050085,7.693e-05,0.0,0 STARLINK-5003,1 53905U 22119V   23095.19009638  .00007693  00000-0  50085-3 0  9998,2 53905  53.2163  75.5059 0001267 113.4560 246.6565 15.08843819 29946,6917.869,95.437,540.61,538.857,0.0
